{
    "links": {
        "self": "http://www.neowsapp.com/rest/v1/neo/3550043?api_key=iIulBulltgU6a56xZRHN4H3l9WmuAYTsLGpBGhQ2"
    },
    "id": "3550043",
    "neo_reference_id": "3550043",
    "name": "(2010 UZ6)",
    "designation": "2010 UZ6",
    "nasa_jpl_url": "http://ssd.jpl.nasa.gov/sbdb.cgi?sstr=3550043",
    "absolute_magnitude_h": 26.4,
    "estimated_diameter": {
        "kilometers": {
            "estimated_diameter_min": 0.0139493823,
            "estimated_diameter_max": 0.0311917671
        },
        "meters": {
            "estimated_diameter_min": 13.9493822934,
            "estimated_diameter_max": 31.1917670523
        },
        "miles": {
            "estimated_diameter_min": 0.0086677416,
            "estimated_diameter_max": 0.0193816595
        },
        "feet": {
            "estimated_diameter_min": 45.7656914036,
            "estimated_diameter_max": 102.3351970157
        }
    },
    "is_potentially_hazardous_asteroid": false,
    "close_approach_data": [
        {
            "close_approach_date": "2010-10-29",
            "close_approach_date_full": "2010-Oct-29 12:35",
            "epoch_date_close_approach": 1288355700000,
            "relative_velocity": {
                "kilometers_per_second": "8.1689707146",
                "kilometers_per_hour": "29408.2945726566",
                "miles_per_hour": "18273.1705915488"
            },
            "miss_distance": {
                "astronomical": "0.0347618538",
                "lunar": "13.5223611282",
                "kilometers": "5200299.285731406",
                "miles": "3231316.1380331628"
            },
            "orbiting_body": "Earth"
        }
    ],
    "orbital_data": {
        "orbit_id": "8",
        "orbit_determination_date": "2017-04-06 08:56:10",
        "first_observation_date": "2010-10-28",
        "last_observation_date": "2010-11-12",
        "data_arc_in_days": 15,
        "observations_used": 22,
        "orbit_uncertainty": "8",
        "minimum_orbit_intersection": ".0326024",
        "jupiter_tisserand_invariant": "3.167",
        "epoch_osculation": "2455499.5",
        "eccentricity": ".5953130301529813",
        "semi_major_axis": "2.535713956429175",
        "inclination": "6.239758705999316",
        "ascending_node_longitude": "215.5307190301348",
        "orbital_period": "1474.853279869495",
        "perihelion_distance": "1.026170397426118",
        "perihelion_argument": "175.8359296345414",
        "aphelion_distance": "4.045257515432232",
        "perihelion_time": "2455495.676546929059",
        "mean_anomaly": ".9332746004813149",
        "mean_motion": ".2440920767602424",
        "equinox": "J2000",
        "orbit_class": {
            "orbit_class_type": "AMO",
            "orbit_class_description": "Near-Earth asteroid orbits similar to that of 1221 Amor",
            "orbit_class_range": "1.017 AU < q (perihelion) < 1.3 AU"
        }
    },
    "is_sentry_object": false
}